{
  "norad_id": 19751,
  "name": "COSMOS 1989 (ETALON 1)",
  "history": [
    {
      "epoch": "2026-03-28T18:18:22.012992Z",
      "apogee_km": 19185.2160976938,
      "perigee_km": 19065.94897343451,
      "latitude_deg": 8.693042785568148,
      "longitude_deg": 150.0566085794898,
      "height_km": 19084.994129116218,
      "semi_major_axis_km": 25503.719535564152,
      "eccentricity": 0.00233823,
      "inclination_deg": 64.9002,
      "raan_deg": 74.9443,
      "arg_perigee_deg": 217.6499,
      "mean_anomaly_deg": 312.9005,
      "mean_motion_rev_day": 2.13155958
    }
  ]
}